start=new Date('2022-06-13T00:00:00.000Z').valueOf();
sats=[{"OBJECT_NAME":"STARLINK-2337","RCS_SIZE":"LARGE","REF_FRAME":"TEME","TIME_SYSTEM":"UTC","REV_AT_EPOCH":"7018","INCLINATION":"53.0552","CLASSIFICATION_TYPE":"U","OBJECT_TYPE":"PAYLOAD","MEAN_MOTION_DOT":"0.00001260","ARG_OF_PERICENTER":"41.0190","EPHEMERIS_TYPE":"0","ECCENTRICITY":"0.00018830","NORAD_CAT_ID":"47880","SEMIMAJOR_AXIS":"6925.346","LAUNCH_DATE":"2021-03-14","PERIAPSIS":"545.907","OBJECT_ID":"2021-021W","TLE_LINE1":"1 47880U 21021W   22163.84373797  .00001260  00000-0  10346-3 0  9991","SITE":"AFETR","COUNTRY_CODE":"US","GP_ID":"206015185","DECAY_DATE":null,"ELEMENT_SET_NO":"999","EPOCH":"2022-06-12T20:14:58.960608","CENTER_NAME":"EARTH","MEAN_MOTION_DDOT":"0.0000000000000","PERIOD":"95.592","BSTAR":"0.00010346000000","MEAN_ANOMALY":"319.0940","FILE":"3493781","MEAN_ELEMENT_THEORY":"SGP4","TLE_LINE2":"2 47880  53.0552 293.1429 0001883  41.0190 319.0940 15.06400831 70184","MEAN_MOTION":"15.06400831","RA_OF_ASC_NODE":"293.1429","APOAPSIS":"548.515"},{"APOAPSIS":"548.210","RA_OF_ASC_NODE":"293.9284","MEAN_MOTION":"15.06399590","TLE_LINE2":"2 47881  53.0540 293.9284 0001437  75.2787 284.8361 15.06399590 70124","MEAN_ELEMENT_THEORY":"SGP4","FILE":"3493781","MEAN_ANOMALY":"284.8361","PERIOD":"95.592","BSTAR":"0.00015503000000","MEAN_MOTION_DDOT":"0.0000000000000","CENTER_NAME":"EARTH","EPOCH":"2022-06-12T16:05:31.336512","ELEMENT_SET_NO":"999","DECAY_DATE":null,"COUNTRY_CODE":"US","GP_ID":"206015431","SITE":"AFETR","TLE_LINE1":"1 47881U 21021X   22163.67050158  .00002028  00000-0  15503-3 0  9999","LAUNCH_DATE":"2021-03-14","PERIAPSIS":"546.220","OBJECT_ID":"2021-021X","SEMIMAJOR_AXIS":"6925.350","NORAD_CAT_ID":"47881","ECCENTRICITY":"0.00014370","EPHEMERIS_TYPE":"0","ARG_OF_PERICENTER":"75.2787","MEAN_MOTION_DOT":"0.00002028","OBJECT_TYPE":"PAYLOAD","CLASSIFICATION_TYPE":"U","INCLINATION":"53.0540","TIME_SYSTEM":"UTC","REV_AT_EPOCH":"7012","REF_FRAME":"TEME","RCS_SIZE":"LARGE","OBJECT_NAME":"STARLINK-2339"},{"EPHEMERIS_TYPE":"0","ECCENTRICITY":"0.00011590","NORAD_CAT_ID":"47882","SEMIMAJOR_AXIS":"6925.344","OBJECT_ID":"2021-021Y","LAUNCH_DATE":"2021-03-14","PERIAPSIS":"546.406","TLE_LINE1":"1 47882U 21021Y   22163.84466343  .00000969  00000-0  83905-4 0  9990","OBJECT_NAME":"STARLINK-2340","RCS_SIZE":"LARGE","REF_FRAME":"TEME","REV_AT_EPOCH":"7049","TIME_SYSTEM":"UTC","INCLINATION":"53.0564","OBJECT_TYPE":"PAYLOAD","CLASSIFICATION_TYPE":"U","MEAN_MOTION_DOT":"0.00000969","ARG_OF_PERICENTER":"75.9854","CENTER_NAME":"EARTH","MEAN_MOTION_DDOT":"0.0000000000000","PERIOD":"95.592","MEAN_ANOMALY":"284.1264","BSTAR":"0.00008390500000","FILE":"3493781","MEAN_ELEMENT_THEORY":"SGP4","TLE_LINE2":"2 47882  53.0564 283.1435 0001159  75.9854 284.1264 15.06401512 70496","MEAN_MOTION":"15.06401512","RA_OF_ASC_NODE":"283.1435","APOAPSIS":"548.012","SITE":"AFETR","COUNTRY_CODE":"US","GP_ID":"206014185","DECAY_DATE":null,"EPOCH":"2022-06-12T20:16:18.920352","ELEMENT_SET_NO":"999"},{"TLE_LINE2":"2 47883  53.0556 288.5624 0001402  68.7804 291.3335 15.06406341 70419","FILE":"3493781","MEAN_ELEMENT_THEORY":"SGP4","PERIOD":"95.592","BSTAR":"0.00012981000000","MEAN_ANOMALY":"291.3335","CENTER_NAME":"EARTH","MEAN_MOTION_DDOT":"0.0000000000000","RA_OF_ASC_NODE":"288.5624","APOAPSIS":"548.165","MEAN_MOTION":"15.06406341","COUNTRY_CODE":"US","GP_ID":"206014435","SITE":"AFETR","EPOCH":"2022-06-12T18:00:18.035136","ELEMENT_SET_NO":"999","DECAY_DATE":null,"NORAD_CAT_ID":"47883","ECCENTRICITY":"0.00014020","EPHEMERIS_TYPE":"0","TLE_LINE1":"1 47883U 21021Z   22163.75020874  .00001653  00000-0  12981-3 0  9992","LAUNCH_DATE":"2021-03-14","PERIAPSIS":"546.223","OBJECT_ID":"2021-021Z","SEMIMAJOR_AXIS":"6925.329","INCLINATION":"53.0556","REF_FRAME":"TEME","REV_AT_EPOCH":"7041","TIME_SYSTEM":"UTC","OBJECT_NAME":"STARLINK-2342","RCS_SIZE":"LARGE","MEAN_MOTION_DOT":"0.00001653","ARG_OF_PERICENTER":"68.7804","CLASSIFICATION_TYPE":"U","OBJECT_TYPE":"PAYLOAD"},{"RCS_SIZE":"LARGE","OBJECT_NAME":"STARLINK-2343","TIME_SYSTEM":"UTC","REV_AT_EPOCH":"7016","REF_FRAME":"TEME","INCLINATION":"53.0543","OBJECT_TYPE":"PAYLOAD","CLASSIFICATION_TYPE":"U","ARG_OF_PERICENTER":"62.5569","MEAN_MOTION_DOT":"0.00002898","EPHEMERIS_TYPE":"0","ECCENTRICITY":"0.00015660","NORAD_CAT_ID":"47884","SEMIMAJOR_AXIS":"6925.341","OBJECT_ID":"2021-021AA","LAUNCH_DATE":"2021-03-14","PERIAPSIS":"546.121","TLE_LINE1":"1 47884U 21021AA  22163.73316290  .00002898  00000-0  21333-3 0  9994","SITE":"AFETR","COUNTRY_CODE":"US","GP_ID":"206014685","DECAY_DATE":null,"ELEMENT_SET_NO":"999","EPOCH":"2022-06-12T17:35:45.274560","MEAN_MOTION_DDOT":"0.0000000000000","CENTER_NAME":"EARTH","PERIOD":"95.592","MEAN_ANOMALY":"297.5579","BSTAR":"0.00021333000000","MEAN_ELEMENT_THEORY":"SGP4","FILE":"3493781","TLE_LINE2":"2 47884  53.0543 293.6474 0001566  62.5569 297.5579 15.06402609 70160","MEAN_MOTION":"15.06402609","APOAPSIS":"548.290","RA_OF_ASC_NODE":"293.6474"},{"TLE_LINE2":"2 47885  53.0564 298.3687 0001537  77.0871 283.0290 15.06407732 70260","FILE":"3493781","MEAN_ELEMENT_THEORY":"SGP4","MEAN_ANOMALY":"283.0290","PERIOD":"95.592","BSTAR":"0.00008691300000","CENTER_NAME":"EARTH","MEAN_MOTION_DDOT":"0.0000000000000","RA_OF_ASC_NODE":"298.3687","APOAPSIS":"548.254","MEAN_MOTION":"15.06407732","COUNTRY_CODE":"US","GP_ID":"206014931","SITE":"AFETR","ELEMENT_SET_NO":"999","EPOCH":"2022-06-12T19:02:39.481728","DECAY_DATE":null,"NORAD_CAT_ID":"47885","ECCENTRICITY":"0.00015370","EPHEMERIS_TYPE":"0","TLE_LINE1":"1 47885U 21021AB  22163.79351252  .00001014  00000-0  86913-4 0  9993","OBJECT_ID":"2021-021AB","LAUNCH_DATE":"2021-03-14","PERIAPSIS":"546.125","SEMIMAJOR_AXIS":"6925.325","INCLINATION":"53.0564","REF_FRAME":"TEME","REV_AT_EPOCH":"7026","TIME_SYSTEM":"UTC","OBJECT_NAME":"STARLINK-2344","RCS_SIZE":"LARGE","MEAN_MOTION_DOT":"0.00001014","ARG_OF_PERICENTER":"77.0871","OBJECT_TYPE":"PAYLOAD","CLASSIFICATION_TYPE":"U"},{"BSTAR":"0.00005940700000","PERIOD":"95.592","MEAN_ANOMALY":"310.9417","CENTER_NAME":"EARTH","MEAN_MOTION_DDOT":"0.0000000000000","TLE_LINE2":"2 47886  53.0551 288.0790 0001637  49.1714 310.9417 15.06399886 70266","FILE":"3493781","MEAN_ELEMENT_THEORY":"SGP4","MEAN_MOTION":"15.06399886","RA_OF_ASC_NODE":"288.0790","APOAPSIS":"548.348","SITE":"AFETR","COUNTRY_CODE":"US","GP_ID":"206013685","DECAY_DATE":null,"EPOCH":"2022-06-12T20:38:10.722048","ELEMENT_SET_NO":"999","ECCENTRICITY":"0.00016370","EPHEMERIS_TYPE":"0","NORAD_CAT_ID":"47886","SEMIMAJOR_AXIS":"6925.349","TLE_LINE1":"1 47886U 21021AC  22163.85984632  .00000603  00000-0  59407-4 0  9996","LAUNCH_DATE":"2021-03-14","OBJECT_ID":"2021-021AC","PERIAPSIS":"546.080","OBJECT_NAME":"STARLINK-2345","RCS_SIZE":"LARGE","INCLINATION":"53.0551","REF_FRAME":"TEME","REV_AT_EPOCH":"7026","TIME_SYSTEM":"UTC","MEAN_MOTION_DOT":"0.00000603","ARG_OF_PERICENTER":"49.1714","CLASSIFICATION_TYPE":"U","OBJECT_TYPE":"PAYLOAD"},{"OBJECT_TYPE":"PAYLOAD","CLASSIFICATION_TYPE":"U","ARG_OF_PERICENTER":"83.6188","MEAN_MOTION_DOT":"0.00000509","REV_AT_EPOCH":"7016","TIME_SYSTEM":"UTC","REF_FRAME":"TEME","INCLINATION":"53.0551","RCS_SIZE":"LARGE","OBJECT_NAME":"STARLINK-2346","OBJECT_ID":"2021-021AD","LAUNCH_DATE":"2021-03-14","PERIAPSIS":"546.197","TLE_LINE1":"1 47887U 21021AD  22163.68524769  .00000509  00000-0  53095-4 0  9991","SEMIMAJOR_AXIS":"6925.343","NORAD_CAT_ID":"47887","EPHEMERIS_TYPE":"0","ECCENTRICITY":"0.00014590","EPOCH":"2022-06-12T16:26:45.400416","ELEMENT_SET_NO":"999","DECAY_DATE":null,"COUNTRY_CODE":"US","GP_ID":"206013935","SITE":"AFETR","APOAPSIS":"548.218","RA_OF_ASC_NODE":"293.8438","MEAN_MOTION":"15.06401888","MEAN_ELEMENT_THEORY":"SGP4","FILE":"3493781","TLE_LINE2":"2 47887  53.0551 293.8438 0001459  83.6188 276.4968 15.06401888 70162","MEAN_MOTION_DDOT":"0.0000000000000","CENTER_NAME":"EARTH","PERIOD":"95.592","MEAN_ANOMALY":"276.4968","BSTAR":"0.00005309500000"},{"CLASSIFICATION_TYPE":"U","OBJECT_TYPE":"PAYLOAD","ARG_OF_PERICENTER":"50.2576","MEAN_MOTION_DOT":"-0.00000509","RCS_SIZE":"LARGE","OBJECT_NAME":"STARLINK-2348","REV_AT_EPOCH":"7031","TIME_SYSTEM":"UTC","REF_FRAME":"TEME","INCLINATION":"53.0550","SEMIMAJOR_AXIS":"6925.351","OBJECT_ID":"2021-021AE","LAUNCH_DATE":"2021-03-14","PERIAPSIS":"546.081","TLE_LINE1":"1 47888U 21021AE  22163.70828165 -.00000509  00000-0 -15251-4 0  9996","EPHEMERIS_TYPE":"0","ECCENTRICITY":"0.00016400","NORAD_CAT_ID":"47888","DECAY_DATE":null,"EPOCH":"2022-06-12T16:59:55.534560","ELEMENT_SET_NO":"999","SITE":"AFETR","COUNTRY_CODE":"US","GP_ID":"206015186","MEAN_MOTION":"15.06399103","APOAPSIS":"548.352","RA_OF_ASC_NODE":"283.7558","MEAN_MOTION_DDOT":"0.0000000000000","CENTER_NAME":"EARTH","PERIOD":"95.592","MEAN_ANOMALY":"309.8557","BSTAR":"-0.00001525100000","MEAN_ELEMENT_THEORY":"SGP4","FILE":"3493781","TLE_LINE2":"2 47888  53.0550 283.7558 0001640  50.2576 309.8557 15.06399103 70314"},{"ARG_OF_PERICENTER":"58.6245","MEAN_MOTION_DOT":"0.00001103","CLASSIFICATION_TYPE":"U","OBJECT_TYPE":"PAYLOAD","INCLINATION":"53.0554","TIME_SYSTEM":"UTC","REV_AT_EPOCH":"7038","REF_FRAME":"TEME","RCS_SIZE":"LARGE","OBJECT_NAME":"STARLINK-2349","TLE_LINE1":"1 47889U 21021AF  22163.85202889  .00001103  00000-0  92899-4 0  9994","OBJECT_ID":"2021-021AF","LAUNCH_DATE":"2021-03-14","PERIAPSIS":"546.055","SEMIMAJOR_AXIS":"6925.328","NORAD_CAT_ID":"47889","ECCENTRICITY":"0.00016430","EPHEMERIS_TYPE":"0","EPOCH":"2022-06-12T20:26:55.296096","ELEMENT_SET_NO":"999","DECAY_DATE":null,"GP_ID":"206015432","COUNTRY_CODE":"US","SITE":"AFETR","APOAPSIS":"548.331","RA_OF_ASC_NODE":"283.1091","MEAN_MOTION":"15.06406666","TLE_LINE2":"2 47889  53.0554 283.1091 0001643  58.6245 301.4905 15.06406666 70388","MEAN_ELEMENT_THEORY":"SGP4","FILE":"3493781","PERIOD":"95.592","BSTAR":"0.00009289900000","MEAN_ANOMALY":"301.4905","MEAN_MOTION_DDOT":"0.0000000000000","CENTER_NAME":"EARTH"}];
